[{"OBJECT_NAME":"SDA_1673","OBJECT_ID":"2025-230K","EPOCH":"2026-03-09T17:15:35.607168","MEAN_MOTION":13.85421507,"ECCENTRICITY":0.00025222,"INCLINATION":81.3013,"RA_OF_ASC_NODE":303.8171,"ARG_OF_PERICENTER":101.7636,"MEAN_ANOMALY":258.3805,"EPHEMERIS_TYPE":0,"CLASSIFICATION_TYPE":"U","NORAD_CAT_ID":65983,"ELEMENT_SET_NO":999,"REV_AT_EPOCH":2005,"BSTAR":-0.017090367,"MEAN_MOTION_DOT":-0.00019388,"MEAN_MOTION_DDOT":0},{"OBJECT_NAME":"SL-8 R\/B","OBJECT_ID":"1978-031B","EPOCH":"2026-03-09T16:26:32.320320","MEAN_MOTION":13.78908889,"ECCENTRICITY":0.00357538,"INCLINATION":82.926,"RA_OF_ASC_NODE":131.3678,"ARG_OF_PERICENTER":156.1395,"MEAN_ANOMALY":324.0778,"EPHEMERIS_TYPE":0,"CLASSIFICATION_TYPE":"U","NORAD_CAT_ID":10745,"ELEMENT_SET_NO":999,"REV_AT_EPOCH":41133,"BSTAR":9.366421e-5,"MEAN_MOTION_DOT":1.11e-6,"MEAN_MOTION_DDOT":0}]
